[{"OBJECT_NAME":"PROPCUBE 3","OBJECT_ID":"2015-058K","EPOCH":"2026-03-09T17:34:06.780288","MEAN_MOTION":14.93528956,"ECCENTRICITY":0.01235273,"INCLINATION":64.7688,"RA_OF_ASC_NODE":203.0958,"ARG_OF_PERICENTER":99.6156,"MEAN_ANOMALY":261.8939,"EPHEMERIS_TYPE":0,"CLASSIFICATION_TYPE":"U","NORAD_CAT_ID":40973,"ELEMENT_SET_NO":999,"REV_AT_EPOCH":9994,"BSTAR":0.00046586011,"MEAN_MOTION_DOT":5.546e-5,"MEAN_MOTION_DDOT":0},{"OBJECT_NAME":"FENGYUN 1C DEB","OBJECT_ID":"1999-025BSV","EPOCH":"2026-03-09T10:24:08.158464","MEAN_MOTION":14.6573547,"ECCENTRICITY":0.00281944,"INCLINATION":99.0439,"RA_OF_ASC_NODE":247.1336,"ARG_OF_PERICENTER":275.5109,"MEAN_ANOMALY":147.7653,"EPHEMERIS_TYPE":0,"CLASSIFICATION_TYPE":"U","NORAD_CAT_ID":31389,"ELEMENT_SET_NO":999,"REV_AT_EPOCH":97765,"BSTAR":0.0046362209,"MEAN_MOTION_DOT":0.00025435,"MEAN_MOTION_DDOT":0}]
